NORAD_CAT_ID,OBJECT_NAME,OBJECT_TYPE,EPOCH,MEAN_MOTION,ECCENTRICITY,INCLINATION,RA_OF_ASC_NODE,ARG_OF_PERICENTER,MEAN_ANOMALY,BSTAR,MEAN_MOTION_DOT,MEAN_MOTION_DDOT,TLE_LINE0,TLE_LINE1,TLE_LINE2,SEMIMAJOR_AXIS,PERIOD,APOGEE,PERIGEE,DECAYED
54182.0,STARLINK-5231,PAYLOAD,2022-11-24 14:00:01,15.73051775,0.0003757,53.2159,7.5998,5.112,193.3781,0.0013216,0.00187908,0.0,0 STARLINK-5231,1 54182U 22141AB  22328.58334491  .00187908  00000-0  13216-2 0  9992,2 54182  53.2159   7.5998 0003757   5.1120 193.3781 15.73051775  4597,6728.318,91.542,352.711,347.655,0.0
54182.0,STARLINK-5231,PAYLOAD,2022-11-24 22:00:00,15.73162049,0.000354,53.2161,5.9484,7.737999999999999,279.5926,0.00053701,0.00075319,0.0,0 STARLINK-5231,1 54182U 22141AB  22328.91667824  .00075319  00000-0  53701-3 0  9994,2 54182  53.2161   5.9484 0003540   7.7380 279.5926 15.73162049  4649,6728.003000000002,91.535,352.25,347.487,0.0
54182.0,STARLINK-5231,PAYLOAD,2022-11-25 14:00:01,15.73230191,0.000389,53.216,2.651,9.9471,95.2669,0.00068694,0.00097062,0.0,0 STARLINK-5231,1 54182U 22141AB  22329.58334491  .00097062  00000-0  68694-3 0  9995,2 54182  53.2160   2.6510 0003890   9.9471  95.2669 15.73230191  1306,6727.809,91.531,352.291,347.057,0.0
54182.0,STARLINK-5231,PAYLOAD,2022-11-25 20:00:01,15.73311709,0.0003715,53.2162,1.4121,9.733,72.2267,-0.00045675,-0.0006457,0.0,0 STARLINK-5231,1 54182U 22141AB  22329.83334491 -.00064570  00000-0 -45675-3 0  9997,2 54182  53.2162   1.4121 0003715   9.7330  72.2267 15.73311709  4791,6727.5769999999975,91.527,351.941,346.94199999999995,0.0
54182.0,STARLINK-5231,PAYLOAD,2022-11-25 22:00:00,15.73294846,0.0003669,53.216,0.9992,9.9125,184.3133,-0.00034715,-0.00049278,0.0,0 STARLINK-5231,1 54182U 22141AB  22329.91667824 -.00049278  00000-0 -34715-3 0  9996,2 54182  53.2160   0.9992 0003669   9.9125 184.3133 15.73294846  1304,6727.625,91.528,351.958,347.021,0.0
54182.0,STARLINK-5231,PAYLOAD,2022-11-26 12:00:00,15.73229422,0.0003957,53.2157,358.1144,11.8668,248.1223,0.00020307,0.00028017,0.0,0 STARLINK-5231,1 54182U 22141AB  22330.50001157  .00028017  00000-0  20307-3 0  9992,2 54182  53.2157 358.1144 0003957  11.8668 248.1223 15.73229422  4895,6727.811,91.531,352.338,347.014,0.0
54182.0,STARLINK-5231,PAYLOAD,2022-11-26 14:00:01,15.73259074,0.0003989,53.2153,357.7018,10.6665,1.5583,-0.00024825,-0.00035424,0.0,0 STARLINK-5231,1 54182U 22141AB  22330.58334491 -.00035424  00000-0 -24825-3 0  9991,2 54182  53.2153 357.7018 0003989  10.6665   1.5583 15.73259074  1304,6727.727,91.53,352.275,346.908,0.0
54182.0,STARLINK-5231,PAYLOAD,2022-11-26 22:00:00,15.73191668,0.0003666,53.2156,356.05,9.4317,91.7971,-0.00011465,-0.00016683,0.0,0 STARLINK-5231,1 54182U 22141AB  22330.91667824 -.00016683  00000-0 -11465-3 0  9999,2 54182  53.2156 356.0500 0003666   9.4317  91.7971 15.73191668  4968,6727.919,91.534,352.25,347.31699999999995,0.0
54182.0,STARLINK-5231,PAYLOAD,2022-11-27 14:00:01,15.73153475,0.0004067,53.2157,352.7527,12.3259,266.7052,0.00047992,0.00067161,0.0,0 STARLINK-5231,1 54182U 22141AB  22331.58334491  .00067161  00000-0  47992-3 0  9993,2 54182  53.2157 352.7527 0004067  12.3259 266.7052 15.73153475  1308,6728.028,91.536,352.629,347.157,0.0
54182.0,STARLINK-5231,PAYLOAD,2022-11-27 22:00:00,15.731956900000002,0.0003833,53.2158,351.1013,13.1537,354.7817,9.2872e-05,0.00012431,0.0,0 STARLINK-5231,1 54182U 22141AB  22331.91667824  .00012431  00000-0  92872-4 0  9997,2 54182  53.2158 351.1013 0003833  13.1537 354.7817 15.73195690  5126,6727.906999999997,91.533,352.351,347.194,0.0
54182.0,STARLINK-5231,PAYLOAD,2022-11-28 22:00:01,15.73160405,0.0003799,53.2153,346.1527,10.9649,263.8478,0.00051418,0.0007206,0.0,0 STARLINK-5231,1 54182U 22141AB  22332.91668981  .00072060  00000-0  51418-3 0  9997,2 54182  53.2153 346.1527 0003799  10.9649 263.8478 15.73160405  5270,6728.0080000000025,91.535,352.42900000000014,347.31699999999995,0.0
54182.0,STARLINK-5231,PAYLOAD,2022-11-29 14:00:01,15.73201892,0.0004068,53.2155,342.8555,6.2508,86.4089,-0.00046318,-0.00065167,0.0,0 STARLINK-5231,1 54182U 22141AB  22333.58335648 -.00065167  00000-0 -46318-3 0  9997,2 54182  53.2155 342.8555 0004068   6.2508  86.4089 15.73201892  5383,6727.89,91.533,352.492,347.01800000000014,0.0
54182.0,STARLINK-5231,PAYLOAD,2022-11-29 22:00:00,15.73129119,0.0003825,53.2155,341.2042,6.1497,175.356,0.00068086,0.00095765,0.0,0 STARLINK-5231,1 54182U 22141AB  22333.91667824  .00095765  00000-0  68086-3 0  9999,2 54182  53.2155 341.2042 0003825   6.1497 175.3560 15.73129119  1304,6728.097,91.537,352.536,347.389,0.0
54182.0,STARLINK-5231,PAYLOAD,2022-11-30 06:00:00,15.73196999,0.0004019,53.2153,339.5566,7.8796,262.5096,0.00019148,0.0002634,0.0,0 STARLINK-5231,1 54182U 22141AB  22334.25001157  .00026340  00000-0  19148-3 0  9996,2 54182  53.2153 339.5566 0004019   7.8796 262.5096 15.73196999  5485,6727.904,91.533,352.473,347.065,0.0
54182.0,STARLINK-5231,PAYLOAD,2022-11-30 14:00:01,15.73272651,0.0004152,53.2153,337.9052,6.9537,352.4252,-0.0006626,-0.00092937,0.0,0 STARLINK-5231,1 54182U 22141AB  22334.58335648 -.00092937  00000-0 -66260-3 0  9991,2 54182  53.2153 337.9052 0004152   6.9537 352.4252 15.73272651  1308,6727.688,91.529,352.346,346.76,0.0
54182.0,STARLINK-5231,PAYLOAD,2022-11-30 20:00:01,15.73169909,0.0003901,53.2163,336.6645,9.1218,326.9525,2.8052e-05,3.311e-05,0.0,0 STARLINK-5231,1 54182U 22141AB  22334.83334491  .00003311  00000-0  28052-4 0  9998,2 54182  53.2163 336.6645 0003901   9.1218 326.9525 15.73169909  5589,6727.981,91.535,352.471,347.221,0.0
54182.0,STARLINK-5231,PAYLOAD,2022-11-30 22:00:00,15.7312643,0.0003871,53.2163,336.251,9.136,79.1769,0.00069429,0.00097678,0.0,0 STARLINK-5231,1 54182U 22141AB  22334.91667824  .00097678  00000-0  69429-3 0  9997,2 54182  53.2163 336.2510 0003871   9.1360  79.1769 15.73126430  1305,6728.105,91.537,352.574,347.365,0.0
54182.0,STARLINK-5231,PAYLOAD,2022-12-01 06:00:00,15.73224785,0.0004034,53.2154,334.6075,5.3374,171.8946,-0.00034852,-0.00049328,0.0,0 STARLINK-5231,1 54182U 22141AB  22335.25001157 -.00049328  00000-0 -34852-3 0  9999,2 54182  53.2154 334.6075 0004034   5.3374 171.8946 15.73224785  5648,6727.825,91.532,352.404,346.976,0.0
54182.0,STARLINK-5231,PAYLOAD,2022-12-01 14:00:01,15.73229233,0.0004095,53.2148,332.9584,4.1977,261.9869,0.00023338,0.0003231,0.0,0 STARLINK-5231,1 54182U 22141AB  22335.58334491  .00032310  00000-0  23338-3 0  9993,2 54182  53.2148 332.9584 0004095   4.1977 261.9869 15.73229233  1307,6727.812,91.531,352.432,346.922,0.0
54182.0,STARLINK-5231,PAYLOAD,2022-12-01 22:00:00,15.73140922,0.000388,53.2148,331.3073,0.8134,354.2179,0.00069947,0.00098482,0.0,0 STARLINK-5231,1 54182U 22141AB  22335.91667824  .00098482  00000-0  69947-3 0  9997,2 54182  53.2148 331.3073 0003880   0.8134 354.2179 15.73140922  1309,6728.064,91.537,352.539,347.3180000000001,0.0
54182.0,STARLINK-5231,PAYLOAD,2022-12-02 06:00:00,15.73217805,0.0004087,53.2144,329.6598,2.639,81.3074,0.00025314,0.00035093,0.0,0 STARLINK-5231,1 54182U 22141AB  22336.25001157  .00035093  00000-0  25314-3 0  9995,2 54182  53.2144 329.6598 0004087   2.6390  81.3074 15.73217805  5807,6727.844,91.532,352.459,346.96,0.0
54182.0,STARLINK-5231,PAYLOAD,2022-12-02 14:00:01,15.73290562,0.0004056,53.2139,328.0099,2.6792,170.2176,-0.00055938,-0.00078745,0.0,0 STARLINK-5231,1 54182U 22141AB  22336.58334491 -.00078745  00000-0 -55938-3 0  9999,2 54182  53.2139 328.0099 0004056   2.6792 170.2176 15.73290562  1305,6727.637,91.528,352.231,346.773,0.0
54182.0,STARLINK-5231,PAYLOAD,2022-12-02 22:00:00,15.73212733,0.0003772,53.214,326.3585,3.5557,258.3461,-0.00011174,-0.00016291,0.0,0 STARLINK-5231,1 54182U 22141AB  22336.91667824 -.00016291  00000-0 -11174-3 0  9997,2 54182  53.2140 326.3585 0003772   3.5557 258.3461 15.73212733  5900,6727.859,91.532,352.26199999999994,347.186,0.0
54182.0,STARLINK-5231,PAYLOAD,2022-12-03 14:00:01,15.73200554,0.0004058,53.214,323.0608,4.494,75.2536,0.00015459,0.00021135,0.0,0 STARLINK-5231,1 54182U 22141AB  22337.58334491  .00021135  00000-0  15459-3 0  9993,2 54182  53.2140 323.0608 0004058   4.4940  75.2536 15.73200554  1301,6727.894,91.533,352.48900000000015,347.028,0.0
54182.0,STARLINK-5231,PAYLOAD,2022-12-03 22:00:00,15.73235865,0.0003869,53.2141,321.4096,7.8237,160.8591,-0.00017648,-0.00025367,0.0,0 STARLINK-5231,1 54182U 22141AB  22337.91667824 -.00025367  00000-0 -17648-3 0  9994,2 54182  53.2141 321.4096 0003869   7.8237 160.8591 15.73235865  6063,6727.793000000002,91.531,352.261,347.055,0.0
54182.0,STARLINK-5231,PAYLOAD,2022-12-04 14:00:01,15.73191398,0.0004053,53.2132,318.1117,8.4392,338.1154,0.00015278,0.00020872,0.0,0 STARLINK-5231,1 54182U 22141AB  22338.58334491  .00020872  00000-0  15278-3 0  9990,2 54182  53.2132 318.1117 0004053   8.4392 338.1154 15.73191398  1304,6727.92,91.534,352.51199999999994,347.05800000000005,0.0
54182.0,STARLINK-5231,PAYLOAD,2022-12-04 22:00:00,15.73222572,0.0003806,53.2135,316.4606,10.2526,65.2273,0.00037525,0.00052439,0.0,0 STARLINK-5231,1 54182U 22141AB  22338.91667824  .00052439  00000-0  37525-3 0  9999,2 54182  53.2135 316.4606 0003806  10.2526  65.2273 15.73222572  6221,6727.831,91.532,352.256,347.135,0.0
54182.0,STARLINK-5231,PAYLOAD,2022-12-05 14:00:01,15.73251383,0.000396,53.2136,313.1623,5.4111,248.0961,-0.00034959,-0.00049531,0.0,0 STARLINK-5231,1 54182U 22141AB  22339.58335648 -.00049531  00000-0 -34959-3 0  9998,2 54182  53.2136 313.1623 0003960   5.4111 248.0961 15.73251383  6320,6727.749,91.53,352.278,346.949,0.0
54182.0,STARLINK-5231,PAYLOAD,2022-12-05 15:58:35,15.73263142,0.0003926,53.2143,312.7542,7.3355,352.7721,0.00018251,0.00025145,0.0,0 STARLINK-5231,1 54182U 22141AB  22339.66569209  .00025145  00000-0  18251-3 0  9999,2 54182  53.2143 312.7542 0003926   7.3355 352.7721 15.73263142  6341,6727.715,91.53,352.221,346.939,0.0
